#aV2022  3 22  0  0  0.00000000     288 DD+AD WGS84 FIT  NGA
## 2202 172800.00000000   300.00000000 59660 0.0000000000000
+   32     1  2  3  4  5  6  7  8  9 10 11 12 13 14 15 16 17
+         18 19 20 21 22 23 24 25 26 27 28 29 30 31 32  0  0
+          0  0  0  0  0  0  0  0  0  0  0  0  0  0  0  0  0
+          0  0  0  0  0  0  0  0  0  0  0  0  0  0  0  0  0
+          0  0  0  0  0  0  0  0  0  0  0  0  0  0  0  0  0
++         2  2  2  2  2  2  2  2  2  2  2  2  2  2  2  2  2
++         2  2  2  2  2  2  2  2  2  2  2  2  2  2  2  0  0
++         0  0  0  0  0  0  0  0  0  0  0  0  0  0  0  0  0
++         0  0  0  0  0  0  0  0  0  0  0  0  0  0  0  0  0
++         0  0  0  0  0  0  0  0  0  0  0  0  0  0  0  0  0
%c cc cc ccc ccc cccc cccc cccc cccc ccccc ccccc ccccc ccccc
%c cc cc ccc ccc cccc cccc cccc cccc ccccc ccccc ccccc ccccc
%f  0.0000000  0.000000000  0.00000000000  0.000000000000000
%f  0.0000000  0.000000000  0.00000000000  0.000000000000000
%i    0    0    0    0      0      0      0      0         0
%i    0    0    0    0      0      0      0      0         0
/*      NGA, ST. LOUIS,MO.                                  
/*   EPHEMERIS COMPUTED FROM 2 DAYS OF DATA                 
/*   EPOCHA v7 SMOOTHER                                     
/*   G2139 IERS2010 SATIGS SATAPC                           
*  2022  3 22 23 10  0.00000000
P  1  21576.828499  13023.728861   8644.526371    402.555273                    
V  1   6945.476636   8992.201314 -29554.469194     -0.090264                    
P  2 -12175.438015 -20595.372376  12036.839293   -652.540571                    
V  2  12482.114248   7335.091906  26780.786810     -0.003877                    
P  3  13968.547389   5495.235943  21814.474513   -175.252168                    
V  3  -6649.762523  27098.958628  -2447.929077     -0.164144                    
P  4  23799.499659   2243.486461  11671.574708   -181.717719                    
V  4 -13727.353931   5941.217377  26782.447868      0.027711                    
P  5  -7057.496565 -20415.154194 -15514.743080    -75.624842                    
V  5   5783.852709 -18711.335918  22368.606145     -0.013453                    
P  6   2696.441662 -16407.519739  20758.926838    240.435787                    
V  6  19405.078416  17552.574335  11465.994193      0.129877                    
P  7  18159.687075  -1465.099889 -19104.354896    317.313186                    
V  7  17149.855800  18184.260773  14125.121134      0.017806                    
P  8  16874.440103   8375.924202 -18894.849780    -60.892590                    
V  8 -22313.280894   8337.879892 -15911.608123     -0.015013                    
P  9  25583.951012  -7036.886996   1445.353663   -348.276504                    
V  9   -920.610053   3435.046203  31520.851861      0.021803                    
P 10 -11540.890542  21900.784346  -9068.463305   -355.118328                    
V 10    294.975377 -12052.368901 -29299.637611     -0.117830                    
P 11 -10398.303805 -21946.298815  10769.991981    -55.887951                    
V 11  11128.664569   8298.976798  27632.208240      0.089016                    
P 12 -12086.952204  -9977.284242  21193.132629   -188.935138                    
V 12   8815.758985 -26047.518005  -7020.333302     -0.057633                    
P 13  -8172.860620 -13644.056618 -21449.138876    281.355260                    
V 13  26436.501890  -4576.194923  -7051.932818      0.063986                    
P 14  13100.175139 -20895.979940  -9763.954731    -96.348358                    
V 14   -681.888290  12720.137767 -28227.431142     -0.034649                    
P 15 -18332.099160  -6973.379328 -18455.380508    -74.737731                    
V 15  20022.405590 -10624.402647 -15918.095217      0.029224                    
P 16   1646.387770  23015.332954 -12998.067816   -483.672766                    
V 16  -7369.286860  14644.196245  25982.283803     -0.042406                    
P 17  18304.214703 -13789.110799  13902.523860    590.719306                    
V 17  16799.179071  -2250.183128 -25083.780397      0.050356                    
P 18 -17744.561580   1454.020938 -19746.553080    213.629975                    
V 18 -17072.317051 -18295.744833  13895.970651     -0.089295                    
P 19  11836.997026 -14716.023310  18334.278246    134.527276                    
V 19  23708.315225  -2916.038031 -17583.897035      0.049846                    
P 20  -2789.162235 -25698.561269  -6637.358153    516.183978                    
V 20   3708.655665  -8127.132334  29653.694019     -0.001656                    
P 21  20559.646625  17314.686486   -779.884579    159.692795                    
V 21  -2825.276495    689.970981 -31292.606113      0.004150                    
P 22  -8093.931646  15937.222370  19993.566530    231.637300                    
V 22 -24282.277655   3862.910426 -13359.996066      0.058774                    
P 23 -15130.781260  12757.954307 -17675.201973     -9.029259                    
V 23   3071.032103 -22290.391634 -18821.157441     -0.031180                    
P 24 -22233.272796 -14338.318129   3873.425968    265.434232                    
V 24  -2016.778379  -5832.620903 -30392.596553     -0.039049                    
P 25 -15883.084974   4985.622201  20345.785741    301.942362                    
V 25   4934.217875 -26129.567772  10385.417353      0.051308                    
P 26  -4271.146934  26035.413914   -691.309598    192.896940                    
V 26  -3890.666286     86.569223  31424.058736      0.029628                    
P 27   4945.687988  14218.626877 -22090.766173    162.473583                    
V 27 -26409.581105   7723.044592   -561.677053      0.116748                    
P 28   9090.284651 -25056.855750   -746.005412    374.772695                    
V 28   1759.947978   2250.759236 -31763.417552      0.022670                    
P 29 -26169.898188   3631.176074   2971.130869   -494.470365                    
V 29   3290.373221  -2852.676556  31878.340927     -0.044195                    
P 30  12189.040678 -10007.245250 -21309.596257   -520.102793                    
V 30  19395.107268  19228.581991   1810.270825     -0.019530                    
P 31  -1098.757634  18032.603208  19182.684926   -170.121385                    
V 31 -18741.866712 -16323.843389  14636.929374     -0.016936                    
P 32 -14730.202611  15826.048908  15435.677679    -90.052413                    
V 32 -19216.016790   3626.238748 -22439.913031     -0.075507                    
EOF
